{
  "type": "FeatureCollection",
  "features": [
    {
      "type": "Feature",
      "properties": {
        "norad_id": 50032,
        "name": "COSMOS 1408 DEB",
        "group": "cosmos-1408-debris",
        "lat": 42.71192684530538,
        "lon": -143.61509718723215,
        "alt_km": 414.62195585646987,
        "timestamp": "2025-12-27T13:34:49.565787+00:00",
        "meta_object_name": "COSMOS 1408 DEB",
        "meta_object_id": "1982-092RU",
        "meta_epoch": "2025-12-27T03:40:10.220448",
        "meta_mean_motion": 15.4583822,
        "meta_eccentricity": 0.00167095,
        "meta_inclination": 82.5632,
        "meta_ra_of_asc_node": 43.7342,
        "meta_arg_of_pericenter": 155.8656,
        "meta_mean_anomaly": 204.338,
        "meta_ephemeris_type": 0,
        "meta_classification_type": "U",
        "meta_norad_cat_id": 50032,
        "meta_element_set_no": 999,
        "meta_rev_at_epoch": 22826,
        "meta_bstar": 0.0001162626,
        "meta_mean_motion_dot": 5.708e-05,
        "meta_mean_motion_ddot": 0,
        "tle_line1": "1 50032U 82092RU  25361.15289607  .00005708  00000+0  11626-3 0  9994",
        "tle_line2": "2 50032  82.5632  43.7342 0016709 155.8656 204.3380 15.45838220228268"
      },
      "geometry": {
        "type": "Point",
        "coordinates": [
          -143.61509718723215,
          42.71192684530538
        ]
      }
    },
    {
      "type": "Feature",
      "properties": {
        "norad_id": 50058,
        "name": "COSMOS 1408 DEB",
        "group": "cosmos-1408-debris",
        "lat": -76.91005704510242,
        "lon": -92.26418271353613,
        "alt_km": 389.6521450472201,
        "timestamp": "2025-12-27T13:34:49.565809+00:00",
        "meta_object_name": "COSMOS 1408 DEB",
        "meta_object_id": "1982-092SW",
        "meta_epoch": "2025-12-27T04:48:13.277952",
        "meta_mean_motion": 15.64988053,
        "meta_eccentricity": 0.00157357,
        "meta_inclination": 82.6117,
        "meta_ra_of_asc_node": 54.1967,
        "meta_arg_of_pericenter": 49.4559,
        "meta_mean_anomaly": 310.8068,
        "meta_ephemeris_type": 0,
        "meta_classification_type": "U",
        "meta_norad_cat_id": 50058,
        "meta_element_set_no": 999,
        "meta_rev_at_epoch": 23030,
        "meta_bstar": 0.00033201877,
        "meta_mean_motion_dot": 0.0003285,
        "meta_mean_motion_ddot": 0,
        "tle_line1": "1 50058U 82092SW  25361.20015368  .00032850  00000+0  33202-3 0  9991",
        "tle_line2": "2 50058  82.6117  54.1967 0015735  49.4559 310.8068 15.64988053230307"
      },
      "geometry": {
        "type": "Point",
        "coordinates": [
          -92.26418271353613,
          -76.91005704510242
        ]
      }
    },
    {
      "type": "Feature",
      "properties": {
        "norad_id": 50404,
        "name": "COSMOS 1408 DEB",
        "group": "cosmos-1408-debris",
        "lat": -67.44950404280162,
        "lon": 39.09851296289159,
        "alt_km": 544.1494722045245,
        "timestamp": "2025-12-27T13:34:49.565822+00:00",
        "meta_object_name": "COSMOS 1408 DEB",
        "meta_object_id": "1982-092ADS",
        "meta_epoch": "2025-12-26T23:49:41.077056",
        "meta_mean_motion": 15.16159411,
        "meta_eccentricity": 0.01656595,
        "meta_inclination": 82.2019,
        "meta_ra_of_asc_node": 200.4168,
        "meta_arg_of_pericenter": 149.7673,
        "meta_mean_anomaly": 211.3249,
        "meta_ephemeris_type": 0,
        "meta_classification_type": "U",
        "meta_norad_cat_id": 50404,
        "meta_element_set_no": 999,
        "meta_rev_at_epoch": 21409,
        "meta_bstar": 0.0039408794,
        "meta_mean_motion_dot": 0.00109479,
        "meta_mean_motion_ddot": 0,
        "tle_line1": "1 50404U 82092ADS 25360.99283654  .00109479  00000+0  39409-2 0  9992",
        "tle_line2": "2 50404  82.2019 200.4168 0165659 149.7673 211.3249 15.16159411214099"
      },
      "geometry": {
        "type": "Point",
        "coordinates": [
          39.09851296289159,
          -67.44950404280162
        ]
      }
    },
    {
      "type": "Feature",
      "properties": {
        "norad_id": 50621,
        "name": "COSMOS 1408 DEB",
        "group": "cosmos-1408-debris",
        "lat": -55.14141113098889,
        "lon": -110.46409438884979,
        "alt_km": 416.40881889453703,
        "timestamp": "2025-12-27T13:34:49.565834+00:00",
        "meta_object_name": "COSMOS 1408 DEB",
        "meta_object_id": "1982-092ALR",
        "meta_epoch": "2025-12-27T04:51:48.023424",
        "meta_mean_motion": 15.57410266,
        "meta_eccentricity": 0.00291312,
        "meta_inclination": 82.5697,
        "meta_ra_of_asc_node": 59.1152,
        "meta_arg_of_pericenter": 100.9036,
        "meta_mean_anomaly": 259.5499,
        "meta_ephemeris_type": 0,
        "meta_classification_type": "U",
        "meta_norad_cat_id": 50621,
        "meta_element_set_no": 999,
        "meta_rev_at_epoch": 22475,
        "meta_bstar": 0.0003618337,
        "meta_mean_motion_dot": 0.00027119,
        "meta_mean_motion_ddot": 0,
        "tle_line1": "1 50621U 82092ALR 25361.20263916  .00027119  00000+0  36183-3 0  9994",
        "tle_line2": "2 50621  82.5697  59.1152 0029131 100.9036 259.5499 15.57410266224751"
      },
      "geometry": {
        "type": "Point",
        "coordinates": [
          -110.46409438884979,
          -55.14141113098889
        ]
      }
    }
  ]
}